NORAD_CAT_ID,OBJECT_NAME,OBJECT_TYPE,EPOCH,MEAN_MOTION,ECCENTRICITY,INCLINATION,RA_OF_ASC_NODE,ARG_OF_PERICENTER,MEAN_ANOMALY,BSTAR,MEAN_MOTION_DOT,MEAN_MOTION_DDOT,TLE_LINE0,TLE_LINE1,TLE_LINE2,SEMIMAJOR_AXIS,PERIOD,APOGEE,PERIGEE,DECAYED
52376.0,STARLINK-3767,PAYLOAD,2023-10-12 03:26:07,15.08842435,0.0001277,53.2167,177.5582,91.985,268.1288,0.00038215,5.8e-05,0.0,0 STARLINK-3767,1 52376U 22045AX  23285.14314134  .00005800  00000-0  38215-3 0  9992,2 52376  53.2167 177.5582 0001277  91.9850 268.1288 15.08842435 83144,6917.873,95.437,540.621,538.855,0.0
52376.0,STARLINK-3767,PAYLOAD,2023-10-12 09:47:40,15.08842291,0.0001178,53.2162,176.3677,87.8942,272.2185,0.00029643,4.433e-05,0.0,0 STARLINK-3767,1 52376U 22045AX  23285.40810211  .00004433  00000-0  29643-3 0  9994,2 52376  53.2162 176.3677 0001178  87.8942 272.2185 15.08842291 83183,6917.873,95.437,540.553,538.923,0.0
52376.0,STARLINK-3767,PAYLOAD,2023-10-12 19:19:58,15.08839858,0.000127,53.2165,174.5841,88.3705,271.7432,0.0002306,3.384e-05,0.0,0 STARLINK-3767,1 52376U 22045AX  23285.80554394  .00003384  00000-0  23060-3 0  9996,2 52376  53.2165 174.5841 0001270  88.3705 271.7432 15.08839858 83246,6917.881,95.438,540.624,538.867,0.0
52376.0,STARLINK-3767,PAYLOAD,2023-10-12 22:30:45,15.08844927,0.000134,53.2156,173.9888,83.8131,276.3014,0.00027072,4.024e-05,0.0,0 STARLINK-3767,1 52376U 22045AX  23285.93802209  .00004024  00000-0  27072-3 0  9990,2 52376  53.2156 173.9888 0001340  83.8131 276.3014 15.08844927 83263,6917.865,95.437,540.657,538.803,0.0
52376.0,STARLINK-3767,PAYLOAD,2023-10-13 09:38:26,15.08845082,0.0001185,53.2156,171.9085,101.6675,258.445,0.00023781,3.499e-05,0.0,0 STARLINK-3767,1 52376U 22045AX  23286.40170008  .00003499  00000-0  23781-3 0  9996,2 52376  53.2156 171.9085 0001185 101.6675 258.4450 15.08845082 83335,6917.865,95.437,540.55,538.91,0.0
52376.0,STARLINK-3767,PAYLOAD,2023-10-13 20:46:08,15.08845042,0.0001165,53.2163,169.8275,97.9837,262.1287,0.00022254,3.256e-05,0.0,0 STARLINK-3767,1 52376U 22045AX  23286.86538012  .00003256  00000-0  22254-3 0  9994,2 52376  53.2163 169.8275 0001165  97.9837 262.1287 15.08845042 83409,6917.865,95.437,540.536,538.924,0.0
52376.0,STARLINK-3767,PAYLOAD,2023-10-14 01:32:17,15.08860804,0.00014,53.216,168.9338,93.6534,266.4619,0.00040757,6.208e-05,0.0,0 STARLINK-3767,1 52376U 22045AX  23287.06409309  .00006208  00000-0  40757-3 0  9991,2 52376  53.2160 168.9338 0001400  93.6534 266.4619 15.08860804 83437,6917.817,95.436,540.65,538.713,0.0
52376.0,STARLINK-3767,PAYLOAD,2023-10-14 09:29:14,15.0884218,0.0001677,53.2155,167.4472,85.6477,274.4706,5.3813e-05,5.69e-06,0.0,0 STARLINK-3767,1 52376U 22045AX  23287.39530138  .00000569  00000-0  53813-4 0  9994,2 52376  53.2155 167.4472 0001677  85.6477 274.4706 15.08842180 83485,6917.874,95.437,540.899,538.579,0.0
52376.0,STARLINK-3767,PAYLOAD,2023-10-14 22:12:19,15.08837691,0.0001442,53.2159,165.0677,98.5641,261.5514,-8.2232e-06,-4.19e-06,0.0,0 STARLINK-3767,1 52376U 22045AX  23287.92522206 -.00000419  00000-0 -82232-5 0  9994,2 52376  53.2159 165.0677 0001442  98.5641 261.5514 15.08837691 83560,6917.887,95.438,540.75,538.755,0.0
52376.0,STARLINK-3767,PAYLOAD,2023-10-15 09:20:01,15.08833744,0.0001401,53.215,162.9838,100.4521,259.6629,4.3599e-05,4.06e-06,0.0,0 STARLINK-3767,1 52376U 22045AX  23288.38890531  .00000406  00000-0  43599-4 0  9990,2 52376  53.2150 162.9838 0001401 100.4521 259.6629 15.08833744 83639,6917.9,95.438,540.734,538.795,0.0
52376.0,STARLINK-3767,PAYLOAD,2023-10-15 22:03:06,15.08840978,0.0001281,53.2154,160.6067,97.9702,262.1435,0.000144,2.005e-05,0.0,0 STARLINK-3767,1 52376U 22045AX  23288.91882546  .00002005  00000-0  14400-3 0  9991,2 52376  53.2154 160.6067 0001281  97.9702 262.1435 15.08840978 83719,6917.877,95.437,540.629,538.856,0.0
52376.0,STARLINK-3767,PAYLOAD,2023-10-16 09:10:48,15.08844085,0.0001299,53.2151,158.5257,93.811,266.3031,0.00027494,4.091e-05,0.0,0 STARLINK-3767,1 52376U 22045AX  23289.38250612  .00004091  00000-0  27494-3 0  9990,2 52376  53.2151 158.5257 0001299  93.8110 266.3031 15.08844085 83788,6917.868,95.437,540.632,538.834,0.0
52376.0,STARLINK-3767,PAYLOAD,2023-10-18 00:55:26,15.08848134,0.0001391,53.2149,151.0918,87.3244,272.7907,0.00014102,1.958e-05,0.0,0 STARLINK-3767,1 52376U 22045AX  23291.03850291  .00001958  00000-0  14102-3 0  9995,2 52376  53.2149 151.0918 0001391  87.3244 272.7907 15.08848134 84037,6917.856,95.437,540.683,538.758,0.0
52376.0,STARLINK-3767,PAYLOAD,2023-10-18 21:35:26,15.08855862,0.000202,53.2094,147.2258,89.0847,271.0376,-0.00022581,-3.882e-05,0.0,0 STARLINK-3767,1 52376U 22045AX  23291.89961521 -.00003882  00000-0 -22581-3 0  9998,2 52376  53.2094 147.2258 0002020  89.0847 271.0376 15.08855862 84160,6917.832,95.437,541.094,538.3,0.0
52376.0,STARLINK-3767,PAYLOAD,2023-10-19 00:46:13,15.08834469,0.000211,53.2113,146.6327,97.2395,262.8837,0.00039942,6.073e-05,0.0,0 STARLINK-3767,1 52376U 22045AX  23292.03210385  .00006073  00000-0  39942-3 0  9992,2 52376  53.2113 146.6327 0002110  97.2395 262.8837 15.08834469 84183,6917.897,95.438,541.222,538.303,0.0
52376.0,STARLINK-3767,PAYLOAD,2023-10-19 21:26:14,15.08833421,0.0002022,53.2109,142.766,96.248,263.8742,0.00052567,8.086e-05,0.0,0 STARLINK-3767,1 52376U 22045AX  23292.89322735  .00008086  00000-0  52567-3 0  9993,2 52376  53.2109 142.7660 0002022  96.2480 263.8742 15.08833421 84319,6917.9,95.438,541.164,538.367,0.0
52376.0,STARLINK-3767,PAYLOAD,2023-10-20 00:37:00,15.08840669,0.0001785,53.2114,142.1716,96.1585,263.961,0.00032345,4.863e-05,0.0,0 STARLINK-3767,1 52376U 22045AX  23293.02570345  .00004863  00000-0  32345-3 0  9992,2 52376  53.2114 142.1716 0001785  96.1585 263.9610 15.08840669 84330,6917.878,95.438,540.978,538.509,0.0
52376.0,STARLINK-3767,PAYLOAD,2023-10-20 16:30:52,15.08830767,0.0001583,53.2146,139.1965,91.0823,269.035,-0.00014806,-2.643e-05,0.0,0 STARLINK-3767,1 52376U 22045AX  23293.68810953 -.00002643  00000-0 -14806-3 0  9994,2 52376  53.2146 139.1965 0001583  91.0823 269.0350 15.08830767 84439,6917.909,95.438,540.869,538.679,0.0
52376.0,STARLINK-3767,PAYLOAD,2023-10-20 21:17:01,15.08835427,0.0001479,53.2172,138.3015,48.1963,311.9155,-7.5781e-05,-1.494e-05,0.0,0 STARLINK-3767,1 52376U 22045AX  23293.88682782 -.00001494  00000-0 -75781-4 0  9996,2 52376  53.2172 138.3015 0001479  48.1963 311.9155 15.08835427 84468,6917.894,95.438,540.783,538.736,0.0
52376.0,STARLINK-3767,PAYLOAD,2023-10-21 06:49:20,15.0883933,0.0001373,53.2156,136.5199,93.2351,266.8798,6.1993e-05,6.99e-06,0.0,0 STARLINK-3767,1 52376U 22045AX  23294.28426687  .00000699  00000-0  61993-4 0  9995,2 52376  53.2156 136.5199 0001373  93.2351 266.8798 15.08839330 84523,6917.882,95.438,540.697,538.798,0.0
52376.0,STARLINK-3767,PAYLOAD,2023-10-21 13:10:53,15.0884002,0.0001455,53.2158,135.3301,93.9184,266.1975,6.0108e-05,6.69e-06,0.0,0 STARLINK-3767,1 52376U 22045AX  23294.54922693  .00000669  00000-0  60108-4 0  9996,2 52376  53.2158 135.3301 0001455  93.9184 266.1975 15.08840020 84561,6917.88,95.438,540.752,538.739,0.0
52376.0,STARLINK-3767,PAYLOAD,2023-10-21 21:07:48,15.08855753,0.0001199,53.215,133.8447,96.4002,263.7127,0.00014231,1.979e-05,0.0,0 STARLINK-3767,1 52376U 22045AX  23294.88041928  .00001979  00000-0  14231-3 0  9996,2 52376  53.2150 133.8447 0001199  96.4002 263.7127 15.08855753 84616,6917.832,95.437,540.527,538.868,0.0
52376.0,STARLINK-3767,PAYLOAD,2023-10-21 22:43:11,15.08854395,0.0001237,53.2146,133.5478,96.806,263.3073,0.00039096,5.942e-05,0.0,0 STARLINK-3767,1 52376U 22045AX  23294.94666146  .00005942  00000-0  39096-3 0  9998,2 52376  53.2146 133.5478 0001237  96.8060 263.3073 15.08854395 84621,6917.836,95.437,540.557,538.846,0.0
52376.0,STARLINK-3767,PAYLOAD,2023-10-22 06:40:07,15.08836937,0.0001649,53.2173,132.0568,84.6823,275.4357,-4.6946e-05,-1.035e-05,0.0,0 STARLINK-3767,1 52376U 22045AX  23295.27786875 -.00001035  00000-0 -46946-4 0  9991,2 52376  53.2173 132.0568 0001649  84.6823 275.4357 15.08836937 84670,6917.89,95.438,540.896,538.614,0.0
52376.0,STARLINK-3767,PAYLOAD,2023-10-22 19:23:13,15.08830827,0.0001226,53.2148,129.682,87.6,272.5133,-2.4204e-05,-6.73e-06,0.0,0 STARLINK-3767,1 52376U 22045AX  23295.80779299 -.00000673  00000-0 -24204-4 0  9992,2 52376  53.2148 129.6820 0001226  87.6000 272.5133 15.08830827 84757,6917.908,95.438,540.622,538.925,0.0
52376.0,STARLINK-3767,PAYLOAD,2023-10-23 19:14:00,15.08839422,0.0001297,53.2153,125.2211,84.8517,275.2623,0.0004696,7.194e-05,0.0,0 STARLINK-3767,1 52376U 22045AX  23296.80139807  .00007194  00000-0  46960-3 0  9993,2 52376  53.2153 125.2211 0001297  84.8517 275.2623 15.08839422 84900,6917.882,95.438,540.644,538.85,0.0
52376.0,STARLINK-3767,PAYLOAD,2023-10-23 20:49:23,15.08843925,0.0001273,53.2154,124.9238,84.0757,276.038,0.00042978,6.559e-05,0.0,0 STARLINK-3767,1 52376U 22045AX  23296.86763650  .00006559  00000-0  42978-3 0  9997,2 52376  53.2154 124.9238 0001273  84.0757 276.0380 15.08843925 84911,6917.868,95.437,540.614,538.853,0.0
52376.0,STARLINK-3767,PAYLOAD,2023-10-24 12:43:14,15.08853053,0.0001286,53.2154,121.95,82.1207,277.9931,0.0005387,8.299e-05,0.0,0 STARLINK-3767,1 52376U 22045AX  23297.53003343  .00008299  00000-0  53870-3 0  9994,2 52376  53.2154 121.9500 0001286  82.1207 277.9931 15.08853053 85010,6917.84,95.437,540.595,538.816,0.0
52376.0,STARLINK-3767,PAYLOAD,2023-10-24 14:18:37,15.0885661,0.000129,53.2154,121.6527,81.4478,278.666,0.00057469,8.874e-05,0.0,0 STARLINK-3767,1 52376U 22045AX  23297.59627212  .00008874  00000-0  57469-3 0  9994,2 52376  53.2154 121.6527 0001290  81.4478 278.6660 15.08856610 85023,6917.83,95.437,540.587,538.802,0.0
52376.0,STARLINK-3767,PAYLOAD,2023-10-25 20:30:56,15.08852176,0.0001258,53.2155,116.0027,86.8612,273.2524,0.00023428,3.444e-05,0.0,0 STARLINK-3767,1 52376U 22045AX  23298.85482531  .00003444  00000-0  23428-3 0  9993,2 52376  53.2155 116.0027 0001258  86.8612 273.2524 15.08852176 85214,6917.843,95.437,540.578,538.838,0.0
